[
  {
    "name": "Vivek Kashyap",
    "pincode": "841440",
    "service": "Electrician",
    "contact": "08797171187"
  },
  {
    "name": "Vivek Kashyap",
    "pincode": "841440",
    "service": "Plumber",
    "contact": "08797171187"
  },
  {
    "name": "Vivek Kashyap",
    "pincode": "841440",
    "service": "Electrician",
    "contact": "08797171187"
  },
  {
    "name": "Vivek Kashyap",
    "pincode": "841440",
    "service": "Electrician",
    "contact": "08797171187"
  },
  {
    "name": "Vivek Kashyap",
    "pincode": "841440",
    "service": "Electrician",
    "contact": "08797171187558"
  },
  {
    "name": "Vivek Kashyap",
    "pincode": "841440",
    "service": "Electrician",
    "contact": "12345"
  },
  {
    "name": "Vivek Kashyap",
    "pincode": "8414",
    "service": "Electrician",
    "contact": "0879"
  },
  {
    "name": "a",
    "pincode": "84144",
    "service": "Electrician",
    "contact": "879717118"
  },
  {
    "name": "Vivek Kashyap",
    "pincode": "84144",
    "service": "Electrician",
    "contact": "08797171"
  },
  {
    "name": "d",
    "pincode": "84144",
    "service": "Plumber",
    "contact": "78797171"
  },
  {
    "name": "s",
    "pincode": "84144",
    "service": "Electrician",
    "contact": "087971711"
  },
  {
    "name": "a123",
    "pincode": "123",
    "service": "Electrician",
    "contact": "8765"
  },
  {
    "name": "a",
    "pincode": "123",
    "service": "Electrician",
    "contact": "8765"
  },
  {
    "name": "a",
    "pincode": "587",
    "service": "Electrician",
    "contact": "485"
  },
  {
    "name": "a",
    "pincode": "758",
    "service": "Electrician",
    "contact": "42"
  },
  {
    "name": "a",
    "pincode": "452",
    "service": "Electrician",
    "contact": "424"
  },
  {
    "name": "a",
    "pincode": "85875",
    "service": "Plumber",
    "contact": "25"
  },
  {
    "name": "g",
    "pincode": "54566",
    "service": "Electrician",
    "contact": "087"
  },
  {
    "name": "w",
    "pincode": "2522",
    "service": "Electrician",
    "contact": "25"
  },
  {
    "name": "a",
    "pincode": "44",
    "service": "Plumber",
    "contact": "5452"
  },
  {
    "name": "d",
    "pincode": "54",
    "service": "Electrician",
    "contact": "48125"
  },
  {
    "name": "v",
    "pincode": "lokh",
    "service": "Plumber",
    "contact": "iuk"
  },
  {
    "name": "ravi",
    "pincode": "140501",
    "service": "Electrician",
    "contact": "9876543210"
  },
  {
    "name": "Vivek Kashyap",
    "pincode": "140501",
    "service": "Electrician",
    "contact": "8797171187"
  },
  {
    "name": "Vivek Kashyap",
    "pincode": "140501",
    "service": "Electrician",
    "contact": "8797171187"
  },
  {
    "name": "Vivek Kashyap",
    "pincode": "140501",
    "service": "Electrician",
    "contact": "8797171187"
  },
  {
    "name": "f",
    "pincode": "5487",
    "service": "Plumber",
    "contact": "84541"
  }
]